[{"OBJECT_NAME":"STARLINK-5395","OBJECT_ID":"2022-177M","EPOCH":"2026-03-09T13:16:49.340640","MEAN_MOTION":15.02536091,"ECCENTRICITY":0.0001324,"INCLINATION":43.0028,"RA_OF_ASC_NODE":134.1698,"ARG_OF_PERICENTER":263.6838,"MEAN_ANOMALY":96.3853,"EPHEMERIS_TYPE":0,"CLASSIFICATION_TYPE":"U","NORAD_CAT_ID":54831,"ELEMENT_SET_NO":999,"REV_AT_EPOCH":17693,"BSTAR":2.5505e-5,"MEAN_MOTION_DOT":1.41e-6,"MEAN_MOTION_DDOT":0},{"OBJECT_NAME":"CZ-6A DEB","OBJECT_ID":"2022-151BB","EPOCH":"2026-03-09T17:16:48.853632","MEAN_MOTION":14.94828895,"ECCENTRICITY":0.00449007,"INCLINATION":98.6423,"RA_OF_ASC_NODE":141.5544,"ARG_OF_PERICENTER":201.6501,"MEAN_ANOMALY":158.2819,"EPHEMERIS_TYPE":0,"CLASSIFICATION_TYPE":"U","NORAD_CAT_ID":54308,"ELEMENT_SET_NO":999,"REV_AT_EPOCH":17599,"BSTAR":0.0053055882,"MEAN_MOTION_DOT":0.00059316,"MEAN_MOTION_DDOT":0}]
